ONEWEB-0171             
1 48070U 21025AE  25357.96216181 -.00000267  00000+0 -76663-3 0  9992
2 48070  87.8974 355.0637 0001724  84.9340 275.1986 13.13470114230610
ONEWEB-0172             
1 48071U 21025AF  25357.94184193 -.00000245  00000+0 -70452-3 0  9994
2 48071  87.8987 355.0518 0001657  84.6241 275.5078 13.13468006231507
ONEWEB-0174             
1 48072U 21025AG  25357.92323188  .00000229  00000+0  59266-3 0  9992
2 48072  87.8979 355.0586 0001690  93.4973 266.6349 13.13467954230828
ONEWEB-0175             
1 48073U 21025AH  25357.95369000 -.00000432  00000+0 -12171-2 0  9990
2 48073  87.8981 355.0226 0001766  77.5874 282.5452 13.13468801230486
ONEWEB-0177             
1 48074U 21025AJ  25357.96555014 -.00000231  00000+0 -66818-3 0  9999
2 48074  87.8988 355.0398 0001568  92.3333 267.7976 13.13469524230679
ONEWEB-0178             
1 48075U 21025AK  25357.98430896  .00000116  00000+0  28282-3 0  9995
2 48075  87.8980 355.0761 0001554  79.5440 280.5864 13.13470035230721
ONEWEB-0108             
1 48076U 21025AL  25357.94354828 -.00000417  00000+0 -11765-2 0  9995
2 48076  87.8984 355.0340 0001947  92.9442 267.1910 13.13469748230649
ONEWEB-0169             
1 48077U 21025AM  25357.44245403  .00001290  00000+0  34956-2 0  9994
2 48077  87.8979 355.1540 0001957  94.3269 265.8084 13.13478735229237
